MEAN_MOTION;ECCENTRICITY;INCLINATION;RA_OF_ASC_NODE;ARG_OF_PERICENTER;MEAN_ANOMALY;BSTAR;MEAN_MOTION_DOT;MEAN_MOTION_DDOT;TYPE
12.62258109;6.7E-5;52.0051;212.0107;93.8725;10.0947;-6.7316E-5;-1.16E-6;0;Globalstar
12.62257139;6.7E-5;52.0052;208.8514;90.4573;52.3461;-6.0133E-5;-1.15E-6;0;Globalstar
12.62257248;6.7E-5;52.0052;208.6124;91.2621;48.6691;-6.1504E-5;-1.15E-6;0;Globalstar
12.62257288;6.56E-5;52.0053;205.7114;91.4781;61.264;-5.3698E-5;-1.13E-6;0;Globalstar
12.6225727;6.48E-5;52.0054;203.8538;92.106;315.0098;-5.3233E-5;-1.13E-6;0;Globalstar
12.62257283;6.62E-5;52.0054;203.0599;92.1476;60.6984;2.4957E-5;-9.9E-7;0;Globalstar
12.62257297;6.68E-5;52.0051;201.2078;92.5813;306.2089;-5.0671E-5;-1.13E-6;0;Globalstar
12.62257321;6.71E-5;52.0051;200.1708;92.6308;54.9547;-1.1623E-5;-1.06E-6;0;Globalstar
12.62257299;6.77E-5;52.0051;197.0336;92.2821;60.9473;-9.5649E-6;-1.05E-6;0;Globalstar
12.62257275;6.34E-5;52.0051;194.4171;93.3163;7.857;-8.2822E-6;-1.05E-6;0;Globalstar
12.62257273;6.27E-5;52.0052;191.781;93.8126;344.4243;2.6906E-5;-9.9E-7;0;Globalstar
12.62257272;6.09E-5;52.0053;188.3909;94.2425;7.4179;7.5217E-5;-9.0E-7;0;Globalstar
12.62257336;5.9E-5;52.0054;184.7396;94.394;60.7636;0.00013014;-8.0E-7;0;Globalstar
12.62257356;5.73E-5;52.0053;181.6071;93.9399;59.8204;0.00012113;-8.2E-7;0;Globalstar
12.62257341;5.63E-5;52.0054;179.4917;94.8862;338.3604;7.9591E-5;-9.0E-7;0;Globalstar
12.62257366;5.49E-5;52.0054;177.3598;94.9891;282.4394;6.3455E-5;-9.2E-7;0;Globalstar
12.62265526;4.92E-5;52.0054;174.2148;95.1629;299.6314;1.7276E-5;-1.01E-6;0;Globalstar
12.62265362;4.91E-5;52.0053;173.4656;95.3221;338.4147;6.9424E-6;-1.03E-6;0;Globalstar
12.62265377;4.8E-5;52.0053;170.3132;94.6163;7.5538;-1.7829E-5;-1.07E-6;0;Globalstar
12.62265415;4.65E-5;52.0051;166.9283;93.5194;24.1387;1.8134E-5;-1.01E-6;0;Globalstar
12.62265404;4.54E-5;52.005;163.5281;93.5397;62.57;7.691E-6;-1.02E-6;0;Globalstar
12.62265389;4.43E-5;52.0049;161.4131;93.5825;341.2406;1.7374E-5;-1.01E-6;0;Globalstar
12.62265405;4.33E-5;52.0048;159.2777;92.682;291.4638;5.4426E-5;-9.4E-7;0;Globalstar
12.62265386;4.31E-5;52.0047;157.7355;91.822;75.5576;6.4367E-5;-9.2E-7;0;Globalstar
12.62265416;4.21E-5;52.0047;155.3877;91.2966;342.4985;0.00010752;-8.5E-7;0;Globalstar
12.62265431;4.13E-5;52.0046;153.2513;90.118;294.516;0.00012979;-8.1E-7;0;Globalstar
12.62265454;4.1E-5;52.0046;151.9905;89.3141;18.3738;0.00015172;-7.7E-7;0;Globalstar
12.62265446;4.06E-5;52.0045;150.1111;88.7227;305.7327;0.00013231;-8.0E-7;0;Globalstar
12.62265456;4.06E-5;52.0045;149.5989;88.6607;350.7725;0.00013477;-8.0E-7;0;Globalstar
12.62265519;3.97E-5;52.0044;146.2086;86.5746;16.4338;0.00015162;-7.7E-7;0;Globalstar
12.62265529;3.96E-5;52.0044;145.9646;86.1108;21.3651;0.00015649;-7.6E-7;0;Globalstar
12.6226554;3.93E-5;52.0044;145.4494;85.3273;71.5407;0.00014799;-7.7E-7;0;Globalstar
12.62265574;3.9E-5;52.0043;140.9586;82.6617;301.1392;8.2465E-5;-8.9E-7;0;Globalstar
12.62265577;3.87E-5;52.0043;139.9382;81.6011;26.3295;7.4004E-5;-9.1E-7;0;Globalstar
12.62265567;3.89E-5;52.0042;137.0572;79.3617;11.1853;1.1415E-5;-1.02E-6;0;Globalstar
12.62265568;3.89E-5;52.0042;136.7782;78.7146;68.6126;6.3085E-6;-1.03E-6;0;Globalstar
12.62265571;3.91E-5;52.0041;133.9116;76.5994;31.8119;-2.0057E-5;-1.07E-6;0;Globalstar
12.62265566;3.94E-5;52.004;130.7548;73.8367;69.1581;-3.9779E-5;-1.11E-6;0;Globalstar
12.62265561;3.99E-5;52.0039;127.8477;71.0595;93.4316;-3.103E-5;-1.09E-6;0;Globalstar
12.62265551;4.01E-5;52.0039;126.0052;70.439;325.6011;-3.1748E-5;-1.09E-6;0;Globalstar
12.62265535;4.08E-5;52.0039;123.3605;67.4362;318.204;-4.5957E-6;-1.05E-6;0;Globalstar
12.62265554;4.07E-5;52.0046;122.6034;67.8614;8.3079;-2.0933E-5;-1.08E-6;0;Globalstar
12.62265539;4.15E-5;52.0039;121.5975;67.0958;71.4358;1.7371E-5;-1.01E-6;0;Globalstar
12.62265536;4.19E-5;52.0039;119.4674;66.3278;13.1928;2.3984E-5;-9.9E-7;0;Globalstar
12.62265545;4.23E-5;52.0039;118.7086;65.7245;67.124;4.4453E-5;-9.6E-7;0;Globalstar
12.62265554;4.35E-5;52.004;115.5458;64.1964;112.0899;6.0024E-5;-9.3E-7;0;Globalstar
12.62265548;4.38E-5;52.0041;114.2062;63.2358;313.5662;5.2056E-5;-9.4E-7;0;Globalstar
12.6226555;4.49E-5;52.0041;112.4298;62.6992;87.0408;3.9785E-5;-9.7E-7;0;Globalstar
12.62265541;4.58E-5;52.0048;109.7682;62.3457;102.6862;-3.4999E-5;-1.1E-6;0;Globalstar
12.62265553;4.7E-5;52.0043;107.4145;61.7062;18.2515;-1.8394E-5;-1.07E-6;0;Globalstar
12.62265545;4.81E-5;52.0044;106.4037;60.7931;88.6473;-3.1403E-5;-1.09E-6;0;Globalstar
12.62265513;4.95E-5;52.005;103.4917;60.7346;117.9481;-4.2969E-5;-1.11E-6;0;Globalstar
12.62265511;5.01E-5;52.0051;102.1543;60.456;315.5933;-4.2046E-5;-1.11E-6;0;Globalstar
12.62265538;5.03E-5;52.0046;100.3772;60.8294;88.8939;-9.8005E-5;-1.21E-6;0;Globalstar
12.62265534;5.08E-5;52.0047;97.4901;60.9093;80.5168;-0.00010792;-1.23E-6;0;Globalstar
12.6226552;5.12E-5;52.0048;95.3635;61.1831;16.2141;-0.00011694;-1.25E-6;0;Globalstar
12.62265515;5.15E-5;52.0048;94.3507;61.0256;88.9799;-0.00011007;-1.23E-6;0;Globalstar
12.62265491;5.36E-5;52.005;92.2354;60.9193;8.1009;-9.3433E-5;-1.21E-6;0;Globalstar
12.62265487;5.45E-5;52.005;91.4635;60.8553;80.9329;-8.4101E-5;-1.19E-6;0;Globalstar
12.62265481;5.58E-5;52.0052;89.0798;61.006;40.7419;-5.3326E-5;-1.13E-6;0;Globalstar
12.62265496;5.61E-5;52.0053;88.3242;60.9105;89.3803;-3.7354E-5;-1.1E-6;0;Globalstar
12.62265482;5.84E-5;52.0055;85.1833;61.2659;99.9704;-1.7683E-5;-1.07E-6;0;Globalstar
12.62265468;6.08E-5;52.0057;82.2969;61.7633;90.3648;3.4048E-7;-1.04E-6;0;Globalstar
12.62265471;6.29E-5;52.0059;79.9163;62.027;45.6924;1.5543E-5;-1.01E-6;0;Globalstar
12.62265479;6.42E-5;52.0061;77.8073;62.5685;315.0926;1.3398E-7;-1.04E-6;0;Globalstar
12.62265463;6.53E-5;52.0062;76.2709;62.7575;89.6222;-1.5347E-5;-1.07E-6;0;Globalstar
12.62265469;6.67E-5;52.0065;73.1456;63.2982;76.959;-4.058E-5;-1.11E-6;0;Globalstar
12.62265475;6.8E-5;52.0066;70.5052;64.0467;59.921;-4.8022E-5;-1.12E-6;0;Globalstar
12.62265455;6.98E-5;52.0068;67.8792;64.8572;21.2892;-6.9313E-5;-1.16E-6;0;Globalstar
12.62265459;7.02E-5;52.0068;67.3589;64.9505;78.2199;-7.2694E-5;-1.17E-6;0;Globalstar
12.62265453;7.24E-5;52.007;64.7047;65.8403;81.668;-7.6231E-5;-1.17E-6;0;Globalstar
12.62265458;7.29E-5;52.007;64.219;65.8526;87.0879;-7.7956E-5;-1.18E-6;0;Globalstar
12.62265453;7.55E-5;52.0071;61.333;66.8043;76.5821;-6.4685E-5;-1.15E-6;0;Globalstar
12.62265442;7.61E-5;52.0072;59.7153;67.5904;331.7916;-6.9659E-5;-1.16E-6;0;Globalstar
12.62265457;7.71E-5;52.0073;58.1927;68.1259;85.5078;-4.0313E-5;-1.11E-6;0;Globalstar
12.62265456;7.78E-5;52.0074;56.5877;68.8885;321.8651;-3.5436E-5;-1.1E-6;0;Globalstar
12.62265441;8.05E-5;52.0076;53.4254;70.2274;3.6301;-1.7901E-5;-1.07E-6;0;Globalstar
12.6226545;8.05E-5;52.0076;52.653;69.9593;77.7081;3.9271E-6;-1.03E-6;0;Globalstar
12.62265474;8.13E-5;52.0077;50.2889;70.9426;7.6556;2.7508E-5;-9.9E-7;0;Globalstar
12.62265472;8.2E-5;52.0078;49.5085;71.075;93.1383;3.7352E-5;-9.7E-7;0;Globalstar
12.62265463;8.37E-5;52.0079;46.3937;72.3161;64.2184;3.2334E-5;-9.8E-7;0;Globalstar
12.62265478;8.52E-5;52.008;43.2499;73.6229;78.5544;3.5531E-5;-9.7E-7;0;Globalstar
12.62265471;8.57E-5;52.0081;41.3956;74.5377;327.3197;1.1512E-5;-1.02E-6;0;Globalstar
12.62265534;8.65E-5;52.0082;40.1147;74.9006;80.182;5.7703E-5;-9.3E-7;0;Globalstar
12.62265549;8.72E-5;52.0082;38.2373;75.8455;3.3359;4.8699E-5;-9.5E-7;0;Globalstar
12.62265548;8.8E-5;52.0082;37.2242;75.7964;76.7228;4.5878E-5;-9.6E-7;0;Globalstar
12.62265532;8.9E-5;52.0082;35.3483;76.872;357.4425;1.2302E-5;-1.02E-6;0;Globalstar
12.62265531;8.9E-5;52.0082;35.1019;76.9446;5.43;1.5783E-5;-1.01E-6;0;Globalstar
12.62265543;9.05E-5;52.0082;32.2121;78.2599;0.5723;5.8595E-6;-1.03E-6;0;Globalstar
12.62265599;9.16E-5;52.0082;29.344;79.3708;323.2552;4.0125E-5;-9.7E-7;0;Globalstar
12.62265602;9.27E-5;52.0082;28.3174;79.9242;56.1053;5.3987E-5;-9.4E-7;0;Globalstar
12.62265602;9.33E-5;52.0082;26.2036;81.0413;332.0143;4.3238E-5;-9.6E-7;0;Globalstar
12.62265611;9.39E-5;52.0082;25.1736;81.3973;70.176;5.7773E-5;-9.3E-7;0;Globalstar
12.62265626;9.42E-5;52.0082;23.5735;82.2513;299.1587;6.4429E-5;-9.2E-7;0;Globalstar
12.62265633;9.5E-5;52.0082;22.0351;82.818;76.2547;7.5595E-5;-9.0E-7;0;Globalstar
12.62265659;9.56E-5;52.0082;20.1603;83.9343;355.2851;9.0895E-5;-8.7E-7;0;Globalstar
12.62265675;9.68E-5;52.0082;17.2707;85.3615;349.7809;9.6532E-5;-8.6E-7;0;Globalstar
12.62265698;9.81E-5;52.0081;14.1346;86.9941;352.0759;9.8375E-5;-8.6E-7;0;Globalstar
12.62265711;9.81E-5;52.0081;13.8969;87.094;347.1072;0.00011205;-8.4E-7;0;Globalstar
12.62265707;9.83E-5;52.0081;13.1226;87.1829;63.3584;0.00010388;-8.5E-7;0;Globalstar
12.62265686;9.92E-5;52.0081;11.011;88.2474;336.1963;6.796E-5;-9.2E-7;0;Globalstar
12.62265712;9.96E-5;52.0081;10.2393;88.5219;48.5805;8.4339E-5;-8.9E-7;0;Globalstar
12.62265749;0.0001001;52.008;7.8174;89.9058;64.493;8.4327E-5;-8.9E-7;0;Globalstar
12.62265755;0.0001005;52.008;7.0967;89.9866;60.8307;7.9454E-5;-9.0E-7;0;Globalstar
12.62265724;0.0001011;52.0079;4.7183;91.8246;11.3418;3.5198E-5;-9.7E-7;0;Globalstar
12.62265745;0.000101;52.0079;3.9588;91.7209;65.8983;4.1079E-5;-9.6E-7;0;Globalstar
12.62265746;0.0001013;52.0078;1.8446;93.1789;342.1166;2.9867E-5;-9.8E-7;0;Globalstar
12.62265743;0.0001017;52.0077;358.9588;94.5007;330.9325;1.6992E-5;-1.01E-6;0;Globalstar
12.62265737;0.0001017;52.0077;358.6921;94.3496;9.4458;1.6934E-5;-1.01E-6;0;Globalstar
12.62265765;0.0001021;52.0076;355.8183;96.2564;339.6133;3.2824E-5;-9.8E-7;0;Globalstar
12.62265745;0.0001021;52.0075;352.6654;97.7244;7.1157;2.6613E-5;-9.9E-7;0;Globalstar
12.62265766;0.0001025;52.0074;349.5081;99.7721;40.7452;4.9502E-5;-9.5E-7;0;Globalstar
12.62265763;0.0001022;52.0073;349.0206;99.6197;48.9577;4.7423E-5;-9.5E-7;0;Globalstar
12.6226578;0.0001021;52.0073;346.3698;101.016;46.4965;6.5491E-5;-9.2E-7;0;Globalstar
12.62265773;0.000102;52.0073;345.8795;101.1842;58.6082;5.0792E-5;-9.5E-7;0;Globalstar
12.62265786;0.0001021;52.0072;343.5145;102.7564;349.1858;5.9625E-5;-9.3E-7;0;Globalstar
12.62265782;0.0001;52.0076;340.6133;104.2134;0.7113;1.585E-5;-1.01E-6;0;Globalstar
